{
"type": "FeatureCollection",
"name": "grid_with_properties",
"features": [
{ "type": "Feature", "properties": { "cell_id": "C00001", "red_id": "R23", "FeO": 0.0, "TiO": 7.68, "Al2O3": 19.4, "SiO2": 0.0, "cell_area": 62771.662882164761, "is_clipped": true }, "geometry": { "type": "Polygon", "coordinates": [ [ [ 4189.042286153876375, 2627.704448383742601 ], [ 3910.048300591666703, 2394.208714991182205 ], [ 3801.086280771505244, 2597.003556082263458 ], [ 3832.492625475160821, 2711.673313106682144 ], [ 4189.042286153876375, 2627.704448383742601 ] ] ] } },
{ "type": "Feature", "properties": { "cell_id": "C00002", "red_id": "R03", "FeO": 0.0, "TiO": 8.82, "Al2O3": 0.0, "SiO2": 10.29, "cell_area": 48196.675381737368, "is_clipped": true }, "geometry": { "type": "Polygon", "coordinates": [ [ [ 3103.580240296505963, 1570.202612267349878 ], [ 3315.060875806118474, 1663.32125775926329 ], [ 3369.626926647081291, 1442.287532201668 ], [ 3279.308852159096205, 1318.193381687307919 ], [ 3103.580240296505963, 1570.202612267349878 ] ] ] } },
{ "type": "Feature", "properties": { "cell_id": "C00003", "red_id": "R08", "FeO": 39.95, "TiO": 0.0, "Al2O3": 0.0, "SiO2": 46.46, "cell_area": 111726.96627012835, "is_clipped": false }, "geometry": { "type": "Polygon", "coordinates": [ [ [ 4092.003307906517875, 1816.505169838792199 ], [ 4064.641730238316086, 1849.461166603895663 ], [ 3977.516825126931508, 2242.192781982077577 ], [ 4248.929022130721933, 2266.526430656873345 ], [ 4321.202540534707623, 2219.503201965881999 ], [ 4308.934004672638366, 1947.699489505672545 ], [ 4092.003307906517875, 1816.505169838792199 ] ] ] } },
{ "type": "Feature", "properties": { "cell_id": "C00004", "red_id": "R08", "FeO": 39.95, "TiO": 0.0, "Al2O3": 0.0, "SiO2": 46.46, "cell_area": 89234.787421438828, "is_clipped": false }, "geometry": { "type": "Polygon", "coordinates": [ [ [ 4308.934004672638366, 1947.699489505672545 ], [ 4321.202540534707623, 2219.503201965881999 ], [ 4476.284803773942258, 2259.032416238206224 ], [ 4628.741628040662363, 2048.323332527916136 ], [ 4539.65464359258749, 1851.205712944534071 ], [ 4308.934004672638366, 1947.699489505672545 ] ] ] } },
{ "type": "Feature", "properties": { "cell_id": "C00005", "red_id": "R08", "FeO": 39.95, "TiO": 0.0, "Al2O3": 0.0, "SiO2": 46.46, "cell_area": 61891.411351336392, "is_clipped": true }, "geometry": { "type": "Polygon", "coordinates": [ [ [ 4544.97116376316626, 2339.227226038694425 ], [ 4476.284803773942258, 2259.032416238206224 ], [ 4321.202540534707623, 2219.503201965881999 ], [ 4248.929022130721933, 2266.526430656873345 ], [ 4251.823837442487275, 2587.752331775115636 ], [ 4544.97116376316626, 2339.227226038694425 ] ] ] } },
{ "type": "Feature", "properties": { "cell_id": "C00006", "red_id": "R23", "FeO": 0.0, "TiO": 7.68, "Al2O3": 19.4, "SiO2": 0.0, "cell_area": 88667.094144520408, "is_clipped": false }, "geometry": { "type": "Polygon", "coordinates": [ [ [ 3362.359970071770931, 2485.409329898893702 ], [ 3371.233951125038857, 2483.018073529588492 ], [ 3659.794996895510849, 2258.980148325103983 ], [ 3527.207940180020614, 2009.541700944619379 ], [ 3314.428739939016396, 1987.758839608263315 ], [ 3391.555779307408557, 2099.575464279108473 ], [ 3362.359970071770931, 2485.409329898893702 ] ] ] } },
{ "type": "Feature", "properties": { "cell_id": "C00007", "red_id": "R03", "FeO": 0.0, "TiO": 8.82, "Al2O3": 0.0, "SiO2": 10.29, "cell_area": 80053.324900417618, "is_clipped": false }, "geometry": { "type": "Polygon", "coordinates": [ [ [ 3369.626926647081291, 1442.287532201668 ], [ 3315.060875806118474, 1663.32125775926329 ], [ 3358.356575410171899, 1739.857402346453455 ], [ 3657.768700640593579, 1648.39012503253025 ], [ 3693.990810039449116, 1592.969560744476439 ], [ 3685.274094831274851, 1481.445405976344091 ], [ 3369.626926647081291, 1442.287532201668 ] ] ] } },
{ "type": "Feature", "properties": { "cell_id": "C00008", "red_id": "R20", "FeO": 0.0, "TiO": 3.03, "Al2O3": 0.0, "SiO2": 16.87, "cell_area": 110076.14926024391, "is_clipped": false }, "geometry": { "type": "Polygon", "coordinates": [ [ [ 3720.078288007739502, 1130.0 ], [ 3710.245092402713908, 1183.254768761321202 ], [ 3737.051848682898708, 1339.591362916609796 ], [ 4146.697283305000383, 1429.386330084718111 ], [ 4215.815208380868171, 1169.792797596587889 ], [ 3755.585317158291218, 1130.0 ], [ 3720.078288007739502, 1130.0 ] ] ] } },
{ "type": "Feature", "properties": { "cell_id": "C00009", "red_id": "R23", "FeO": 0.0, "TiO": 7.68, "Al2O3": 19.4, "SiO2": 0.0, "cell_area": 67390.457784359241, "is_clipped": true }, "geometry": { "type": "Polygon", "coordinates": [ [ [ 3527.207940180020614, 2009.541700944619379 ], [ 3659.794996895510849, 2258.980148325103983 ], [ 3840.741269566050505, 2247.184461167707013 ], [ 3757.147663514164833, 1944.280056996279654 ], [ 3689.306016668723259, 1907.099293965397919 ], [ 3527.207940180020614, 2009.541700944619379 ] ] ] } },
{ "type": "Feature", "properties": { "cell_id": "C00010", "red_id": "R10", "FeO": 0.0, "TiO": 0.0, "Al2O3": 12.8, "SiO2": 20.44, "cell_area": 164308.02611269994, "is_clipped": true }, "geometry": { "type": "Polygon", "coordinates": [ [ [ 4083.079547481948794, 1738.800514258274234 ], [ 4092.003307906517875, 1816.505169838792199 ], [ 4308.934004672638366, 1947.699489505672545 ], [ 4539.65464359258749, 1851.205712944534071 ], [ 4682.819963114759958, 1567.838910054020971 ], [ 4189.930292562547947, 1545.823620285022116 ], [ 4083.079547481948794, 1738.800514258274234 ] ] ] } },
{ "type": "Feature", "properties": { "cell_id": "C00011", "red_id": "R16", "FeO": 53.82, "TiO": 0.0, "Al2O3": 11.28, "SiO2": 40.67, "cell_area": 97392.128796536956, "is_clipped": false }, "geometry": { "type": "Polygon", "coordinates": [ [ [ 3657.768700640593579, 1648.39012503253025 ], [ 3689.306016668723259, 1907.099293965397919 ], [ 3757.147663514164833, 1944.280056996279654 ], [ 4064.641730238316086, 1849.461166603895663 ], [ 4092.003307906517875, 1816.505169838792199 ], [ 4083.079547481948794, 1738.800514258274234 ], [ 3693.990810039449116, 1592.969560744476439 ], [ 3657.768700640593579, 1648.39012503253025 ] ] ] } },
{ "type": "Feature", "properties": { "cell_id": "C00012", "red_id": "R03", "FeO": 0.0, "TiO": 8.82, "Al2O3": 0.0, "SiO2": 10.29, "cell_area": 101548.77547487243, "is_clipped": false }, "geometry": { "type": "Polygon", "coordinates": [ [ [ 3657.768700640593579, 1648.39012503253025 ], [ 3358.356575410171899, 1739.857402346453455 ], [ 3288.643735470391675, 1950.376461256711536 ], [ 3314.428739939016396, 1987.758839608263315 ], [ 3527.207940180020614, 2009.541700944619379 ], [ 3689.306016668723259, 1907.099293965397919 ], [ 3657.768700640593579, 1648.39012503253025 ] ] ] } },
{ "type": "Feature", "properties": { "cell_id": "C00013", "red_id": "R08", "FeO": 39.95, "TiO": 0.0, "Al2O3": 0.0, "SiO2": 46.46, "cell_area": 121811.60894086698, "is_clipped": true }, "geometry": { "type": "Polygon", "coordinates": [ [ [ 4743.41644395129606, 1529.352994349203982 ], [ 4682.819963114759958, 1567.838910054020971 ], [ 4539.65464359258749, 1851.205712944534071 ], [ 4628.741628040662363, 2048.323332527916136 ], [ 4848.368574205284858, 2112.12701461629058 ], [ 4870.0, 2096.435527814745001 ], [ 4870.0, 1878.599396706609241 ], [ 4743.41644395129606, 1529.352994349203982 ] ] ] } },
{ "type": "Feature", "properties": { "cell_id": "C00014", "red_id": "R03", "FeO": 0.0, "TiO": 8.82, "Al2O3": 0.0, "SiO2": 10.29, "cell_area": 91253.889625056152, "is_clipped": false }, "geometry": { "type": "Polygon", "coordinates": [ [ [ 3279.308852159096205, 1318.193381687307919 ], [ 3369.626926647081291, 1442.287532201668 ], [ 3685.274094831274851, 1481.445405976344091 ], [ 3737.051848682898708, 1339.591362916609796 ], [ 3710.245092402713908, 1183.254768761321202 ], [ 3299.690349100475487, 1288.96464478541543 ], [ 3279.308852159096205, 1318.193381687307919 ] ] ] } },
{ "type": "Feature", "properties": { "cell_id": "C00015", "red_id": "R20", "FeO": 0.0, "TiO": 3.03, "Al2O3": 0.0, "SiO2": 16.87, "cell_area": 132562.12522590518, "is_clipped": true }, "geometry": { "type": "Polygon", "coordinates": [ [ [ 3685.274094831274851, 1481.445405976344091 ], [ 3693.990810039449116, 1592.969560744476439 ], [ 4083.079547481948794, 1738.800514258274234 ], [ 4189.930292562547947, 1545.823620285022116 ], [ 4146.697283305000383, 1429.386330084718111 ], [ 3737.051848682898708, 1339.591362916609796 ], [ 3685.274094831274851, 1481.445405976344091 ] ] ] } },
{ "type": "Feature", "properties": { "cell_id": "C00016", "red_id": "R08", "FeO": 39.95, "TiO": 0.0, "Al2O3": 0.0, "SiO2": 46.46, "cell_area": 47104.028622887912, "is_clipped": true }, "geometry": { "type": "Polygon", "coordinates": [ [ [ 4848.368574205284858, 2112.12701461629058 ], [ 4628.741628040662363, 2048.323332527916136 ], [ 4476.284803773942258, 2259.032416238206224 ], [ 4544.97116376316626, 2339.227226038694425 ], [ 4602.292825379079659, 2290.63093763694269 ], [ 4848.368574205284858, 2112.12701461629058 ] ] ] } },
{ "type": "Feature", "properties": { "cell_id": "C00017", "red_id": "R23", "FeO": 0.0, "TiO": 7.68, "Al2O3": 19.4, "SiO2": 0.0, "cell_area": 79488.217772359872, "is_clipped": false }, "geometry": { "type": "Polygon", "coordinates": [ [ [ 3757.147663514164833, 1944.280056996279654 ], [ 3840.741269566050505, 2247.184461167707013 ], [ 3910.045492432490846, 2278.489366046785108 ], [ 3977.516825126931508, 2242.192781982077577 ], [ 4064.641730238316086, 1849.461166603895663 ], [ 3757.147663514164833, 1944.280056996279654 ] ] ] } },
{ "type": "Feature", "properties": { "cell_id": "C00018", "red_id": "R19", "FeO": 0.0, "TiO": 11.15, "Al2O3": 0.0, "SiO2": 0.0, "cell_area": 108009.12015433784, "is_clipped": false }, "geometry": { "type": "Polygon", "coordinates": [ [ [ 3832.492625475160821, 2711.673313106682144 ], [ 3801.086280771505244, 2597.003556082263458 ], [ 3371.233951125038857, 2483.018073529588492 ], [ 3362.359970071770931, 2485.409329898893702 ], [ 3336.398091881091659, 2828.505551011086482 ], [ 3832.492625475160821, 2711.673313106682144 ] ] ] } },
{ "type": "Feature", "properties": { "cell_id": "C00019", "red_id": "R08", "FeO": 39.95, "TiO": 0.0, "Al2O3": 0.0, "SiO2": 46.46, "cell_area": 93143.323449697811, "is_clipped": false }, "geometry": { "type": "Polygon", "coordinates": [ [ [ 3977.516825126931508, 2242.192781982077577 ], [ 3910.045492432490846, 2278.489366046785108 ], [ 3910.048300591666703, 2394.208714991182205 ], [ 4189.042286153876375, 2627.704448383742601 ], [ 4210.72028732727631, 2622.599192794582905 ], [ 4251.823837442487275, 2587.752331775115636 ], [ 4248.929022130721933, 2266.526430656873345 ], [ 3977.516825126931508, 2242.192781982077577 ] ] ] } },
{ "type": "Feature", "properties": { "cell_id": "C00020", "red_id": "R10", "FeO": 0.0, "TiO": 0.0, "Al2O3": 12.8, "SiO2": 20.44, "cell_area": 174452.38272517704, "is_clipped": true }, "geometry": { "type": "Polygon", "coordinates": [ [ [ 4215.815208380868171, 1169.792797596587889 ], [ 4146.697283305000383, 1429.386330084718111 ], [ 4189.930292562547947, 1545.823620285022116 ], [ 4682.819963114759958, 1567.838910054020971 ], [ 4743.41644395129606, 1529.352994349203982 ], [ 4657.184009696637986, 1291.436092896592072 ], [ 4300.977776402473864, 1177.15619770753483 ], [ 4215.815208380868171, 1169.792797596587889 ] ] ] } },
{ "type": "Feature", "properties": { "cell_id": "C00021", "red_id": "R11", "FeO": 37.14, "TiO": 10.66, "Al2O3": 27.57, "SiO2": 0.0, "cell_area": 35015.245356178275, "is_clipped": true }, "geometry": { "type": "Polygon", "coordinates": [ [ [ 3299.690349100475487, 1288.96464478541543 ], [ 3710.245092402713908, 1183.254768761321202 ], [ 3720.078288007739502, 1130.0 ], [ 3410.538020430110919, 1130.0 ], [ 3299.690349100475487, 1288.96464478541543 ] ] ] } },
{ "type": "Feature", "properties": { "cell_id": "C00022", "red_id": "R03", "FeO": 0.0, "TiO": 8.82, "Al2O3": 0.0, "SiO2": 10.29, "cell_area": 51330.202958704853, "is_clipped": true }, "geometry": { "type": "Polygon", "coordinates": [ [ [ 3288.643735470391675, 1950.376461256711536 ], [ 3358.356575410171899, 1739.857402346453455 ], [ 3315.060875806118474, 1663.32125775926329 ], [ 3103.580240296505963, 1570.202612267349878 ], [ 3064.787024706690318, 1625.835262573377349 ], [ 3288.643735470391675, 1950.376461256711536 ] ] ] } },
{ "type": "Feature", "properties": { "cell_id": "C00023", "red_id": "R23", "FeO": 0.0, "TiO": 7.68, "Al2O3": 19.4, "SiO2": 0.0, "cell_area": 115060.30863030942, "is_clipped": true }, "geometry": { "type": "Polygon", "coordinates": [ [ [ 3659.794996895510849, 2258.980148325103983 ], [ 3371.233951125038857, 2483.018073529588492 ], [ 3801.086280771505244, 2597.003556082263458 ], [ 3910.048300591666703, 2394.208714991182205 ], [ 3910.045492432490846, 2278.489366046785108 ], [ 3840.741269566050505, 2247.184461167707013 ], [ 3659.794996895510849, 2258.980148325103983 ] ] ] } },
{ "type": "Feature", "properties": { "cell_id": "C00024", "red_id": "R02", "FeO": 47.36, "TiO": 13.38, "Al2O3": 0.0, "SiO2": 0.0, "cell_area": 97521.538823906143, "is_clipped": false }, "geometry": { "type": "Polygon", "coordinates": [ [ [ 3948.588419118063484, 3953.133132286667205 ], [ 4111.274027345919421, 4029.136574255904634 ], [ 4125.013306147368894, 4028.851519619174269 ], [ 4417.137006098021629, 3724.433877727483832 ], [ 4332.129722253900582, 3533.298172386344504 ], [ 3958.322841962207349, 3918.675640617462705 ], [ 3948.588419118063484, 3953.133132286667205 ] ] ] } },
{ "type": "Feature", "properties": { "cell_id": "C00025", "red_id": "R25", "FeO": 38.21, "TiO": 0.0, "Al2O3": 0.0, "SiO2": 0.0, "cell_area": 78721.512309756305, "is_clipped": false }, "geometry": { "type": "Polygon", "coordinates": [ [ [ 4870.0, 4046.942584778956189 ], [ 4789.176518872847737, 4043.718323802665964 ], [ 4602.334466478687318, 4186.289466238186833 ], [ 4600.57105661672631, 4323.032569632397099 ], [ 4859.345412896794187, 4446.506802089626035 ], [ 4870.0, 4445.763378861946876 ], [ 4870.0, 4046.942584778956189 ] ] ] } },
{ "type": "Feature", "properties": { "cell_id": "C00026", "red_id": "R09", "FeO": 39.02, "TiO": 0.0, "Al2O3": 0.0, "SiO2": 0.0, "cell_area": 140180.46039656596, "is_clipped": true }, "geometry": { "type": "Polygon", "coordinates": [ [ [ 4332.129722253900582, 3533.298172386344504 ], [ 4417.137006098021629, 3724.433877727483832 ], [ 4469.317882324105994, 3761.999800833774771 ], [ 4654.625321802755025, 3774.331941113517132 ], [ 4870.0, 3654.407276464212828 ], [ 4870.0, 3614.808200797791869 ], [ 4522.381152147491775, 3337.157816910465044 ], [ 4332.129722253900582, 3533.298172386344504 ] ] ] } },
{ "type": "Feature", "properties": { "cell_id": "C00027", "red_id": "R09", "FeO": 39.02, "TiO": 0.0, "Al2O3": 0.0, "SiO2": 0.0, "cell_area": 87600.448737425555, "is_clipped": false }, "geometry": { "type": "Polygon", "coordinates": [ [ [ 4469.317882324105994, 3761.999800833774771 ], [ 4417.137006098021629, 3724.433877727483832 ], [ 4125.013306147368894, 4028.851519619174269 ], [ 4250.610086106615199, 4127.500385498135984 ], [ 4500.218960436011002, 4080.081223883479652 ], [ 4469.317882324105994, 3761.999800833774771 ] ] ] } },
{ "type": "Feature", "properties": { "cell_id": "C00028", "red_id": "R06", "FeO": 34.64, "TiO": 0.0, "Al2O3": 0.0, "SiO2": 29.06, "cell_area": 72716.926747243502, "is_clipped": false }, "geometry": { "type": "Polygon", "coordinates": [ [ [ 4212.565679229233865, 4470.570069324245196 ], [ 4306.317083636456118, 4413.311231930705617 ], [ 4250.610086106615199, 4127.500385498135984 ], [ 4125.013306147368894, 4028.851519619174269 ], [ 4111.274027345919421, 4029.136574255904634 ], [ 4032.745388921111953, 4304.069984808554182 ], [ 4212.565679229233865, 4470.570069324245196 ] ] ] } },
{ "type": "Feature", "properties": { "cell_id": "C00029", "red_id": "R06", "FeO": 34.64, "TiO": 0.0, "Al2O3": 0.0, "SiO2": 29.06, "cell_area": 154800.85525770238, "is_clipped": true }, "geometry": { "type": "Polygon", "coordinates": [ [ [ 4580.136742289510039, 4870.0 ], [ 4472.667330264704106, 4418.092248724728051 ], [ 4306.317083636456118, 4413.311231930705617 ], [ 4212.565679229233865, 4470.570069324245196 ], [ 4168.214487929516508, 4557.662078895291415 ], [ 4174.425348836870398, 4870.0 ], [ 4580.136742289510039, 4870.0 ] ] ] } },
{ "type": "Feature", "properties": { "cell_id": "C00030", "red_id": "R06", "FeO": 34.64, "TiO": 0.0, "Al2O3": 0.0, "SiO2": 29.06, "cell_area": 70739.992390252883, "is_clipped": true }, "geometry": { "type": "Polygon", "coordinates": [ [ [ 4212.565679229233865, 4470.570069324245196 ], [ 4032.745388921111953, 4304.069984808554182 ], [ 3841.305092259957291, 4332.890042444071696 ], [ 3793.559128131452326, 4501.899154492849448 ], [ 4168.214487929516508, 4557.662078895291415 ], [ 4212.565679229233865, 4470.570069324245196 ] ] ] } },
{ "type": "Feature", "properties": { "cell_id": "C00031", "red_id": "R06", "FeO": 34.64, "TiO": 0.0, "Al2O3": 0.0, "SiO2": 29.06, "cell_area": 100124.48354922122, "is_clipped": false }, "geometry": { "type": "Polygon", "coordinates": [ [ [ 4174.425348836870398, 4870.0 ], [ 4168.214487929516508, 4557.662078895291415 ], [ 3793.559128131452326, 4501.899154492849448 ], [ 3788.169242095727896, 4520.978041464116359 ], [ 3961.471121588620917, 4870.0 ], [ 4174.425348836870398, 4870.0 ] ] ] } },
{ "type": "Feature", "properties": { "cell_id": "C00032", "red_id": "R09", "FeO": 39.02, "TiO": 0.0, "Al2O3": 0.0, "SiO2": 0.0, "cell_area": 87849.285556705741, "is_clipped": false }, "geometry": { "type": "Polygon", "coordinates": [ [ [ 4469.317882324105994, 3761.999800833774771 ], [ 4500.218960436011002, 4080.081223883479652 ], [ 4602.334466478687318, 4186.289466238186833 ], [ 4789.176518872847737, 4043.718323802665964 ], [ 4654.625321802755025, 3774.331941113517132 ], [ 4469.317882324105994, 3761.999800833774771 ] ] ] } },
{ "type": "Feature", "properties": { "cell_id": "C00033", "red_id": "R25", "FeO": 38.21, "TiO": 0.0, "Al2O3": 0.0, "SiO2": 0.0, "cell_area": 108291.01201367057, "is_clipped": false }, "geometry": { "type": "Polygon", "coordinates": [ [ [ 4472.667330264704106, 4418.092248724728051 ], [ 4580.136742289510039, 4870.0 ], [ 4590.765188975026831, 4870.0 ], [ 4859.345412896794187, 4446.506802089626035 ], [ 4600.57105661672631, 4323.032569632397099 ], [ 4472.667330264704106, 4418.092248724728051 ] ] ] } },
{ "type": "Feature", "properties": { "cell_id": "C00034", "red_id": "R09", "FeO": 39.02, "TiO": 0.0, "Al2O3": 0.0, "SiO2": 0.0, "cell_area": 52940.541376253095, "is_clipped": true }, "geometry": { "type": "Polygon", "coordinates": [ [ [ 4870.0, 3654.407276464212828 ], [ 4654.625321802755025, 3774.331941113517132 ], [ 4789.176518872847737, 4043.718323802665964 ], [ 4870.0, 4046.942584778956189 ], [ 4870.0, 3654.407276464212828 ] ] ] } },
{ "type": "Feature", "properties": { "cell_id": "C00035", "red_id": "R06", "FeO": 34.64, "TiO": 0.0, "Al2O3": 0.0, "SiO2": 29.06, "cell_area": 60152.509903817991, "is_clipped": true }, "geometry": { "type": "Polygon", "coordinates": [ [ [ 3841.305092259957291, 4332.890042444071696 ], [ 4032.745388921111953, 4304.069984808554182 ], [ 4111.274027345919421, 4029.136574255904634 ], [ 3948.588419118063484, 3953.133132286667205 ], [ 3841.305092259957291, 4332.890042444071696 ] ] ] } },
{ "type": "Feature", "properties": { "cell_id": "C00036", "red_id": "R06", "FeO": 34.64, "TiO": 0.0, "Al2O3": 0.0, "SiO2": 29.06, "cell_area": 92553.572642851388, "is_clipped": false }, "geometry": { "type": "Polygon", "coordinates": [ [ [ 4250.610086106615199, 4127.500385498135984 ], [ 4306.317083636456118, 4413.311231930705617 ], [ 4472.667330264704106, 4418.092248724728051 ], [ 4600.57105661672631, 4323.032569632397099 ], [ 4602.334466478687318, 4186.289466238186833 ], [ 4500.218960436011002, 4080.081223883479652 ], [ 4250.610086106615199, 4127.500385498135984 ] ] ] } },
{ "type": "Feature", "properties": { "cell_id": "C00037", "red_id": "R25", "FeO": 38.21, "TiO": 0.0, "Al2O3": 0.0, "SiO2": 0.0, "cell_area": 61387.054560574979, "is_clipped": true }, "geometry": { "type": "Polygon", "coordinates": [ [ [ 4870.0, 4445.763378861946876 ], [ 4859.345412896794187, 4446.506802089626035 ], [ 4590.765188975026831, 4870.0 ], [ 4870.0, 4870.0 ], [ 4870.0, 4445.763378861946876 ] ] ] } },
{ "type": "Feature", "properties": { "cell_id": "C00038", "red_id": "R27", "FeO": 48.99, "TiO": 0.0, "Al2O3": 19.36, "SiO2": 0.0, "cell_area": 98498.44814277158, "is_clipped": false }, "geometry": { "type": "Polygon", "coordinates": [ [ [ 2399.140260191848938, 2614.875411942166465 ], [ 2376.246830215744012, 2526.187945795611085 ], [ 2197.923682717718293, 2380.173855869316867 ], [ 1933.144599997926207, 2588.798014151957886 ], [ 1991.014194663044464, 2764.574368141905325 ], [ 2399.140260191848938, 2614.875411942166465 ] ] ] } },
{ "type": "Feature", "properties": { "cell_id": "C00039", "red_id": "R27", "FeO": 48.99, "TiO": 0.0, "Al2O3": 19.36, "SiO2": 0.0, "cell_area": 96911.571885004028, "is_clipped": false }, "geometry": { "type": "Polygon", "coordinates": [ [ [ 1991.014194663044464, 2764.574368141905325 ], [ 1933.144599997926207, 2588.798014151957886 ], [ 1852.54239701499182, 2534.979929058860762 ], [ 1592.347499483864794, 2570.217696404854905 ], [ 1538.065804444992409, 2780.213600587671408 ], [ 1832.326928067467406, 2822.780202510185518 ], [ 1991.014194663044464, 2764.574368141905325 ] ] ] } },
{ "type": "Feature", "properties": { "cell_id": "C00040", "red_id": "R01", "FeO": 39.46, "TiO": 11.88, "Al2O3": 0.0, "SiO2": 0.0, "cell_area": 96782.533940034351, "is_clipped": false }, "geometry": { "type": "Polygon", "coordinates": [ [ [ 1529.804010722921703, 2500.177209587016023 ], [ 1592.347499483864794, 2570.217696404854905 ], [ 1852.54239701499182, 2534.979929058860762 ], [ 1822.996897731082981, 2148.854274910635922 ], [ 1809.883001063661368, 2140.394147551426613 ], [ 1509.829615790144544, 2374.235667025431212 ], [ 1529.804010722921703, 2500.177209587016023 ] ] ] } },
{ "type": "Feature", "properties": { "cell_id": "C00041", "red_id": "R01", "FeO": 39.46, "TiO": 11.88, "Al2O3": 0.0, "SiO2": 0.0, "cell_area": 68366.434817302783, "is_clipped": true }, "geometry": { "type": "Polygon", "coordinates": [ [ [ 1625.990540584091832, 1215.63430679757812 ], [ 1725.608042599660166, 1343.51457192509929 ], [ 1963.520166760127722, 1394.377907333347821 ], [ 1970.590020665630618, 1130.0 ], [ 1726.804370446595158, 1130.0 ], [ 1625.990540584091832, 1215.63430679757812 ] ] ] } },
{ "type": "Feature", "properties": { "cell_id": "C00042", "red_id": "R28", "FeO": 0.0, "TiO": 4.09, "Al2O3": 14.36, "SiO2": 33.8, "cell_area": 157093.9702114441, "is_clipped": true }, "geometry": { "type": "Polygon", "coordinates": [ [ [ 1986.003337622731578, 1434.759194984682154 ], [ 2135.537497448612157, 1813.723054956021997 ], [ 2225.242750614868783, 1876.111272294936043 ], [ 2254.62948824518071, 1867.856963166801961 ], [ 2519.852738194793801, 1420.839397734049271 ], [ 2467.313819527248143, 1358.817213707613291 ], [ 1988.286476953416695, 1422.374775115960347 ], [ 1986.003337622731578, 1434.759194984682154 ] ] ] } },
{ "type": "Feature", "properties": { "cell_id": "C00043", "red_id": "R27", "FeO": 48.99, "TiO": 0.0, "Al2O3": 19.36, "SiO2": 0.0, "cell_area": 39868.295855158394, "is_clipped": true }, "geometry": { "type": "Polygon", "coordinates": [ [ [ 2627.86450012652449, 2385.148395758305014 ], [ 2512.644938774491038, 2375.190824134644117 ], [ 2376.246830215744012, 2526.187945795611085 ], [ 2399.140260191848938, 2614.875411942166465 ], [ 2642.134836814266237, 2525.746004254271611 ], [ 2627.86450012652449, 2385.148395758305014 ] ] ] } },
{ "type": "Feature", "properties": { "cell_id": "C00044", "red_id": "R01", "FeO": 39.46, "TiO": 11.88, "Al2O3": 0.0, "SiO2": 0.0, "cell_area": 78726.059117323821, "is_clipped": false }, "geometry": { "type": "Polygon", "coordinates": [ [ [ 1170.792449771768361, 2578.76085224236067 ], [ 1529.804010722921703, 2500.177209587016023 ], [ 1509.829615790144544, 2374.235667025431212 ], [ 1428.134200997285234, 2298.425419518507169 ], [ 1171.170071372086568, 2313.111820109976634 ], [ 1170.792449771768361, 2578.76085224236067 ] ] ] } },
{ "type": "Feature", "properties": { "cell_id": "C00045", "red_id": "R01", "FeO": 39.46, "TiO": 11.88, "Al2O3": 0.0, "SiO2": 0.0, "cell_area": 86117.077030444416, "is_clipped": false }, "geometry": { "type": "Polygon", "coordinates": [ [ [ 1986.003337622731578, 1434.759194984682154 ], [ 1688.839746072325852, 1833.463360196313943 ], [ 2135.537497448612157, 1813.723054956021997 ], [ 1986.003337622731578, 1434.759194984682154 ] ] ] } },
{ "type": "Feature", "properties": { "cell_id": "C00046", "red_id": "R27", "FeO": 48.99, "TiO": 0.0, "Al2O3": 19.36, "SiO2": 0.0, "cell_area": 122410.46351472726, "is_clipped": true }, "geometry": { "type": "Polygon", "coordinates": [ [ [ 2189.370237149418699, 2273.900309055708476 ], [ 2092.783309989809368, 2137.338374843188831 ], [ 1822.996897731082981, 2148.854274910635922 ], [ 1852.54239701499182, 2534.979929058860762 ], [ 1933.144599997926207, 2588.798014151957886 ], [ 2197.923682717718293, 2380.173855869316867 ], [ 2189.370237149418699, 2273.900309055708476 ] ] ] } },
{ "type": "Feature", "properties": { "cell_id": "C00047", "red_id": "R01", "FeO": 39.46, "TiO": 11.88, "Al2O3": 0.0, "SiO2": 0.0, "cell_area": 93183.224987575319, "is_clipped": false }, "geometry": { "type": "Polygon", "coordinates": [ [ [ 1171.170071372086568, 2313.111820109976634 ], [ 1428.134200997285234, 2298.425419518507169 ], [ 1464.365538093798932, 1953.35817327122345 ], [ 1165.287059889058582, 1983.568342686885444 ], [ 1171.283863093503896, 2233.061683587817697 ], [ 1171.170071372086568, 2313.111820109976634 ] ] ] } },
{ "type": "Feature", "properties": { "cell_id": "C00048", "red_id": "R28", "FeO": 0.0, "TiO": 4.09, "Al2O3": 14.36, "SiO2": 33.8, "cell_area": 108616.49416767829, "is_clipped": false }, "geometry": { "type": "Polygon", "coordinates": [ [ [ 1970.590020665630618, 1130.0 ], [ 1963.520166760127722, 1394.377907333347821 ], [ 1988.286476953416695, 1422.374775115960347 ], [ 2467.313819527248143, 1358.817213707613291 ], [ 2273.483028667084, 1130.0 ], [ 1970.590020665630618, 1130.0 ] ] ] } },
{ "type": "Feature", "properties": { "cell_id": "C00049", "red_id": "R01", "FeO": 39.46, "TiO": 11.88, "Al2O3": 0.0, "SiO2": 0.0, "cell_area": 131717.62067697395, "is_clipped": true }, "geometry": { "type": "Polygon", "coordinates": [ [ [ 1615.105531503421844, 1861.512140462415346 ], [ 1634.740338290024056, 1866.705225934383407 ], [ 1688.839746072325852, 1833.463360196313943 ], [ 1986.003337622731578, 1434.759194984682154 ], [ 1988.286476953416695, 1422.374775115960347 ], [ 1963.520166760127722, 1394.377907333347821 ], [ 1725.608042599660166, 1343.51457192509929 ], [ 1495.942747166267964, 1627.025609266766423 ], [ 1615.105531503421844, 1861.512140462415346 ] ] ] } },
{ "type": "Feature", "properties": { "cell_id": "C00050", "red_id": "R01", "FeO": 39.46, "TiO": 11.88, "Al2O3": 0.0, "SiO2": 0.0, "cell_area": 73825.540979434794, "is_clipped": false }, "geometry": { "type": "Polygon", "coordinates": [ [ [ 1333.246247288284167, 1518.924264613581045 ], [ 1495.942747166267964, 1627.025609266766423 ], [ 1725.608042599660166, 1343.51457192509929 ], [ 1625.990540584091832, 1215.63430679757812 ], [ 1460.340383782341178, 1356.342544625413211 ], [ 1333.246247288284167, 1518.924264613581045 ] ] ] } },
{ "type": "Feature", "properties": { "cell_id": "C00051", "red_id": "R26", "FeO": 0.0, "TiO": 0.0, "Al2O3": 0.0, "SiO2": 48.74, "cell_area": 31690.696884180201, "is_clipped": true }, "geometry": { "type": "Polygon", "coordinates": [ [ [ 2577.474008802200387, 1888.67920052041768 ], [ 2413.333059751530982, 1957.779790986205398 ], [ 2495.439995267852737, 2144.426765383613656 ], [ 2602.917417791526077, 2139.358811952216911 ], [ 2577.474008802200387, 1888.67920052041768 ] ] ] } },
{ "type": "Feature", "properties": { "cell_id": "C00052", "red_id": "R01", "FeO": 39.46, "TiO": 11.88, "Al2O3": 0.0, "SiO2": 0.0, "cell_area": 116123.36614554755, "is_clipped": true }, "geometry": { "type": "Polygon", "coordinates": [ [ [ 1464.365538093798932, 1953.35817327122345 ], [ 1428.134200997285234, 2298.425419518507169 ], [ 1509.829615790144544, 2374.235667025431212 ], [ 1809.883001063661368, 2140.394147551426613 ], [ 1634.740338290024056, 1866.705225934383407 ], [ 1615.105531503421844, 1861.512140462415346 ], [ 1464.365538093798932, 1953.35817327122345 ] ] ] } },
{ "type": "Feature", "properties": { "cell_id": "C00053", "red_id": "R26", "FeO": 0.0, "TiO": 0.0, "Al2O3": 0.0, "SiO2": 48.74, "cell_area": 29233.514784196774, "is_clipped": true }, "geometry": { "type": "Polygon", "coordinates": [ [ [ 2602.917417791526077, 2139.358811952216911 ], [ 2495.439995267852737, 2144.426765383613656 ], [ 2474.13999556236422, 2178.793598073483736 ], [ 2512.644938774491038, 2375.190824134644117 ], [ 2627.86450012652449, 2385.148395758305014 ], [ 2602.917417791526077, 2139.358811952216911 ] ] ] } },
{ "type": "Feature", "properties": { "cell_id": "C00054", "red_id": "R28", "FeO": 0.0, "TiO": 4.09, "Al2O3": 14.36, "SiO2": 33.8, "cell_area": 92881.3082401172, "is_clipped": false }, "geometry": { "type": "Polygon", "coordinates": [ [ [ 2519.852738194793801, 1420.839397734049271 ], [ 2254.62948824518071, 1867.856963166801961 ], [ 2413.333059751530982, 1957.779790986205398 ], [ 2577.474008802200387, 1888.67920052041768 ], [ 2561.624511995715693, 1732.523014747280286 ], [ 2552.682006381269275, 1459.594342916667983 ], [ 2519.852738194793801, 1420.839397734049271 ] ] ] } },
{ "type": "Feature", "properties": { "cell_id": "C00055", "red_id": "R01", "FeO": 39.46, "TiO": 11.88, "Al2O3": 0.0, "SiO2": 0.0, "cell_area": 142837.11257844369, "is_clipped": true }, "geometry": { "type": "Polygon", "coordinates": [ [ [ 1634.740338290024056, 1866.705225934383407 ], [ 1809.883001063661368, 2140.394147551426613 ], [ 1822.996897731082981, 2148.854274910635922 ], [ 2092.783309989809368, 2137.338374843188831 ], [ 2225.242750614868783, 1876.111272294936043 ], [ 2135.537497448612157, 1813.723054956021997 ], [ 1688.839746072325852, 1833.463360196313943 ], [ 1634.740338290024056, 1866.705225934383407 ] ] ] } },
{ "type": "Feature", "properties": { "cell_id": "C00056", "red_id": "R26", "FeO": 0.0, "TiO": 0.0, "Al2O3": 0.0, "SiO2": 48.74, "cell_area": 100270.50864836984, "is_clipped": false }, "geometry": { "type": "Polygon", "coordinates": [ [ [ 2092.783309989809368, 2137.338374843188831 ], [ 2189.370237149418699, 2273.900309055708476 ], [ 2474.13999556236422, 2178.793598073483736 ], [ 2495.439995267852737, 2144.426765383613656 ], [ 2413.333059751530982, 1957.779790986205398 ], [ 2254.62948824518071, 1867.856963166801961 ], [ 2225.242750614868783, 1876.111272294936043 ], [ 2092.783309989809368, 2137.338374843188831 ] ] ] } },
{ "type": "Feature", "properties": { "cell_id": "C00057", "red_id": "R01", "FeO": 39.46, "TiO": 11.88, "Al2O3": 0.0, "SiO2": 0.0, "cell_area": 86314.119673057139, "is_clipped": false }, "geometry": { "type": "Polygon", "coordinates": [ [ [ 1538.065804444992409, 2780.213600587671408 ], [ 1592.347499483864794, 2570.217696404854905 ], [ 1529.804010722921703, 2500.177209587016023 ], [ 1170.792449771768361, 2578.76085224236067 ], [ 1170.581649006689531, 2727.054856527949141 ], [ 1538.065804444992409, 2780.213600587671408 ] ] ] } },
{ "type": "Feature", "properties": { "cell_id": "C00058", "red_id": "R27", "FeO": 48.99, "TiO": 0.0, "Al2O3": 19.36, "SiO2": 0.0, "cell_area": 69960.781519982993, "is_clipped": true }, "geometry": { "type": "Polygon", "coordinates": [ [ [ 2189.370237149418699, 2273.900309055708476 ], [ 2197.923682717718293, 2380.173855869316867 ], [ 2376.246830215744012, 2526.187945795611085 ], [ 2512.644938774491038, 2375.190824134644117 ], [ 2474.13999556236422, 2178.793598073483736 ], [ 2189.370237149418699, 2273.900309055708476 ] ] ] } },
{ "type": "Feature", "properties": { "cell_id": "C00059", "red_id": "R01", "FeO": 39.46, "TiO": 11.88, "Al2O3": 0.0, "SiO2": 0.0, "cell_area": 140048.87296832318, "is_clipped": true }, "geometry": { "type": "Polygon", "coordinates": [ [ [ 1165.287059889058582, 1983.568342686885444 ], [ 1464.365538093798932, 1953.35817327122345 ], [ 1615.105531503421844, 1861.512140462415346 ], [ 1495.942747166267964, 1627.025609266766423 ], [ 1333.246247288284167, 1518.924264613581045 ], [ 1159.462297600884995, 1741.232659209233589 ], [ 1165.287059889058582, 1983.568342686885444 ] ] ] } }
]
}
